{
  "name": "SATGUS",
  "line1": "1 62713U 25009DJ  25335.17588384  .00009691  00000+0  82561-3 0  9996",
  "line2": "2 62713  97.7244  53.4234 0003729  84.6419 275.5228 14.97970010 47884",
  "fetched_at": "2025-12-02T00:18:56.395664+00:00"
}